#aV2014  7 17  0  0  0.00000000     288 DD+AD WGS84 FIT  NGA
## 1801 345600.00000000   300.00000000 56855 0.0000000000000
+   32     1  2  3  4  5  6  7  8  9 10 11 12 13 14 15 16 17
+         18 19 20 21 22 23 24 25 26 27 28 29 30 31 32  0  0
+          0  0  0  0  0  0  0  0  0  0  0  0  0  0  0  0  0
+          0  0  0  0  0  0  0  0  0  0  0  0  0  0  0  0  0
+          0  0  0  0  0  0  0  0  0  0  0  0  0  0  0  0  0
++         2  2  2  2  2  2  2  2  2  2  2  2  2  2  2  2  2
++         2  2  2  2  2  2  2  2  2  2  2  2  2  2  2  0  0
++         0  0  0  0  0  0  0  0  0  0  0  0  0  0  0  0  0
++         0  0  0  0  0  0  0  0  0  0  0  0  0  0  0  0  0
++         0  0  0  0  0  0  0  0  0  0  0  0  0  0  0  0  0
%c cc cc ccc ccc cccc cccc cccc cccc ccccc ccccc ccccc ccccc
%c cc cc ccc ccc cccc cccc cccc cccc ccccc ccccc ccccc ccccc
%f  0.0000000  0.000000000  0.00000000000  0.000000000000000
%f  0.0000000  0.000000000  0.00000000000  0.000000000000000
%i    0    0    0    0      0      0      0      0         0
%i    0    0    0    0      0      0      0      0         0
/*      NGA, ST. LOUIS,MO.                                  
/*   EPHEMERIS COMPUTED FROM  1 DAYS OF DATA                
/*   EPOCHA SMOOTHER                                       
/* CCCCCCCCCCCCCCCCCCCCCCCCCCCCCCCCCCCCCCCCCCCCCCCCCCCCCCCCC
*  2014  7 17 16 45  0.00000000
P  1  10608.704071 -21272.454024 -11729.121783     17.835669                    
V  1  12522.494887  -8429.318498  26839.633122      0.008099                    
P  2 -21455.527797  11593.861954  -9602.279569    507.278854                    
V  2   6522.130739 -11597.018087 -28196.058440      0.021805                    
P  3   9486.930679 -14497.493452  19537.922484    391.767221                    
V  3  11361.968028  23605.133623  11805.811667      0.050227                    
P  4 -12738.137028  -9606.697576 -21536.920920      7.363835                    
V  4  19040.045075 -18764.375679  -2676.201879     -0.001015                    
P  5 -22279.808666   4044.516004  13979.525935   -357.302475                    
V  5 -16420.822425  -7221.129372 -23854.144782      0.031353                    
P  6 -19175.110274    626.305041 -18370.760302     -0.049472                    
V  6  15768.161240 -17237.340904 -17066.558185     -0.022593                    
P  7  -2285.224937 -16748.653054  20470.967805    369.750689                    
V  7  19847.016121 -16643.598082 -11785.123516      0.042715                    
P  8  -8031.660255 -12077.900637  22392.718293     14.763852                    
V  8  22665.017665 -16386.097710  -1314.406215      0.002376                    
P  9 -14229.666166  -5966.225805  21127.200423    181.193846                    
V  9  19986.237998 -19579.657355   7530.833622      0.549408                    
P 10 -25376.953535  -8567.496371  -1013.895064   -134.036009                    
V 10   1728.569536  -2661.576486 -31015.042137     -0.015714                    
P 11  11065.657810 -23994.039827  -1784.397249   -506.012286                    
V 11   5332.790439    856.941485  30145.675666     -0.030084                    
P 12  -6358.879412  13284.327070 -22167.620303    218.702111                    
V 12 -26357.713680  -9147.366261   2297.049677      0.025502                    
P 13  -3720.958455 -26195.036327    409.789407    -21.511852                    
V 13   2342.901338   -987.940738 -32224.817141     -0.038731                    
P 14  13681.321895  16209.810476 -15853.775962    153.561624                    
V 14   1625.673865  20475.693463  21871.949320     -0.035776                    
P 15  -6291.220169  20265.557579  15736.544457   -191.528512                    
V 15  -8065.547490 -18785.553633  21184.921366     -0.021920                    
P 16  22301.078741  -2135.093539  14486.817211   -207.017586                    
V 16  16803.755601   7358.583009 -24337.741355      0.022375                    
P 17 -14151.092292 -15927.798964 -15740.044791   -109.631842                    
V 17  -2271.581614 -20300.308147  21997.098727     -0.029011                    
P 18  14662.246684  16353.544920  15620.425336    332.165248                    
V 18 -18919.276215  -2884.125355  21089.759370      0.023856                    
P 19   9586.551639 -17306.806539  17341.675310   -468.648785                    
V 19   5107.591069  21979.522934  19386.048032     -0.020497                    
P 20   2139.800195 -15943.933364 -21324.370338    211.673034                    
V 20  26163.470629   5722.422825  -1600.722051      0.041950                    
P 21   7815.588810  14531.472209  21406.325341   -373.157933                    
V 21 -19108.520760  17461.650175  -5477.515068     -0.021646                    
P 22  24033.795082  10573.706155   4774.320050    251.053911                    
V 22  -6601.705852   2007.037182  30003.194309      0.032281                    
P 23   1216.682534 -24513.521039  -9467.755723    -37.282493                    
V 23   5888.632925  11299.824414 -28575.249707     -0.029923                    
P 24 -13753.981912  21240.537230  -7930.011071    -31.974195                    
V 24  -9179.473238   5015.898834  29528.555453     -0.006165                    
P 25   7318.710315  16138.865725 -19904.202524     24.694791                    
V 25 -24279.610032  -6104.169833 -13801.844027     -0.002532                    
P 26 -12916.802972   8991.179235  20690.933720     11.376692                    
V 26  -4755.747845 -27427.356996   8953.737005     -0.126371                    
P 27  13886.523589  -6506.004223  21668.486088     -1.486159                    
V 27   6891.768989  26664.425532   3650.711872      0.029612                    
P 28 -21152.141212 -13930.315953   8815.552966    370.299028                    
V 28  10209.119042   2025.306892  29625.201565      0.027359                    
P 29   5176.517241  26074.519574    400.050796    547.316834                    
V 29  -2355.867407    919.133581 -31924.744152      0.026672                    
P 30 -11782.835931  -9964.073408  21613.834347    -34.106502                    
V 30  21102.173866 -17580.343207   3356.565872     -0.062697                    
P 31  19987.650517  -2240.861660 -17352.651152    333.434396                    
V 31 -15661.160224  15745.581743 -19599.591663     -0.002651                    
P 32  15486.510723  -8964.568497 -19403.449808   -383.265450                    
V 32  22663.897838  10597.508156  13697.330169      0.083193                    
EOF
